    CK13A010  2014 10 25.3015  1.398712  1.000434    2.4226  300.9764  129.0428  20141209   8.2  2.4      C/2013 A1 (Siding Spring)
